start=new Date('2022-07-26T00:00:00.000Z').valueOf();
sats=[{"OBJECT_NAME":"STARLINK-3366","ARG_OF_PERICENTER":"57.7701","TIME_SYSTEM":"UTC","TLE_LINE1":"1 51104U 22005A   22206.85906180 -.00000744  00000-0 -28673-4 0  9996","MEAN_MOTION_DDOT":"0.0000000000000","SEMIMAJOR_AXIS":"6917.879","EPHEMERIS_TYPE":"0","DECAY_DATE":null,"FILE":"3521711","APOAPSIS":"541.053","ELEMENT_SET_NO":"999","CLASSIFICATION_TYPE":"U","MEAN_MOTION_DOT":"-0.00000744","MEAN_ELEMENT_THEORY":"SGP4","RA_OF_ASC_NODE":"107.5301","OBJECT_TYPE":"PAYLOAD","TLE_LINE2":"2 51104  53.2179 107.5301 0001892  57.7701 302.3474 15.08840563 29176","MEAN_ANOMALY":"302.3474","LAUNCH_DATE":"2022-01-19","CENTER_NAME":"EARTH","SITE":"AFETR","BSTAR":"-0.00002867300000","COUNTRY_CODE":"US","PERIOD":"95.438","GP_ID":"208864793","EPOCH":"2022-07-25T20:37:02.939520","OBJECT_ID":"2022-005A","MEAN_MOTION":"15.08840563","REV_AT_EPOCH":"2917","INCLINATION":"53.2179","PERIAPSIS":"538.435","NORAD_CAT_ID":"51104","REF_FRAME":"TEME","ECCENTRICITY":"0.00018920","RCS_SIZE":"LARGE"},{"COUNTRY_CODE":"US","PERIOD":"95.438","LAUNCH_DATE":"2022-01-19","CENTER_NAME":"EARTH","BSTAR":"0.00007892800000","SITE":"AFETR","PERIAPSIS":"538.469","INCLINATION":"53.2186","REF_FRAME":"TEME","NORAD_CAT_ID":"51105","ECCENTRICITY":"0.00018530","RCS_SIZE":"LARGE","GP_ID":"208863541","EPOCH":"2022-07-25T19:59:56.167008","MEAN_MOTION":"15.08838205","REV_AT_EPOCH":"2917","OBJECT_ID":"2022-005B","MEAN_MOTION_DDOT":"0.0000000000000","OBJECT_NAME":"STARLINK-3350","ARG_OF_PERICENTER":"58.9572","TIME_SYSTEM":"UTC","TLE_LINE1":"1 51105U 22005B   22206.83328897  .00000968  00000-0  78928-4 0  9992","RA_OF_ASC_NODE":"107.6673","MEAN_ELEMENT_THEORY":"SGP4","MEAN_MOTION_DOT":"0.00000968","TLE_LINE2":"2 51105  53.2186 107.6673 0001853  58.9572 301.1602 15.08838205 29174","OBJECT_TYPE":"PAYLOAD","MEAN_ANOMALY":"301.1602","DECAY_DATE":null,"SEMIMAJOR_AXIS":"6917.886","EPHEMERIS_TYPE":"0","FILE":"3521711","APOAPSIS":"541.033","ELEMENT_SET_NO":"999","CLASSIFICATION_TYPE":"U"},{"LAUNCH_DATE":"2022-01-19","CENTER_NAME":"EARTH","BSTAR":"0.00012160000000","SITE":"AFETR","COUNTRY_CODE":"US","PERIOD":"95.438","GP_ID":"208863791","EPOCH":"2022-07-25T19:28:08.948352","MEAN_MOTION":"15.08832405","REV_AT_EPOCH":"2916","OBJECT_ID":"2022-005C","INCLINATION":"53.2167","PERIAPSIS":"538.583","REF_FRAME":"TEME","NORAD_CAT_ID":"51106","RCS_SIZE":"LARGE","ECCENTRICITY":"0.00017140","OBJECT_NAME":"STARLINK-3176","ARG_OF_PERICENTER":"56.3570","TIME_SYSTEM":"UTC","TLE_LINE1":"1 51106U 22005C   22206.81121468  .00001647  00000-0  12160-3 0  9996","MEAN_MOTION_DDOT":"0.0000000000000","DECAY_DATE":null,"EPHEMERIS_TYPE":"0","SEMIMAJOR_AXIS":"6917.904","FILE":"3521711","APOAPSIS":"540.954","ELEMENT_SET_NO":"999","CLASSIFICATION_TYPE":"U","MEAN_ELEMENT_THEORY":"SGP4","RA_OF_ASC_NODE":"107.7429","MEAN_MOTION_DOT":"0.00001647","TLE_LINE2":"2 51106  53.2167 107.7429 0001714  56.3570 303.7586 15.08832405 29164","OBJECT_TYPE":"PAYLOAD","MEAN_ANOMALY":"303.7586"},{"FILE":"3521711","APOAPSIS":"540.909","CLASSIFICATION_TYPE":"U","ELEMENT_SET_NO":"999","EPHEMERIS_TYPE":"0","SEMIMAJOR_AXIS":"6917.838","DECAY_DATE":null,"MEAN_ANOMALY":"303.2020","MEAN_MOTION_DOT":"-0.00003933","RA_OF_ASC_NODE":"118.0479","MEAN_ELEMENT_THEORY":"SGP4","OBJECT_TYPE":"PAYLOAD","TLE_LINE2":"2 51107  53.2184 118.0479 0001743  56.9139 303.2020 15.08853940 29023","TLE_LINE1":"1 51107U 22005D   22206.74500063 -.00003933  00000-0 -22906-3 0  9992","ARG_OF_PERICENTER":"56.9139","OBJECT_NAME":"STARLINK-3368","TIME_SYSTEM":"UTC","MEAN_MOTION_DDOT":"0.0000000000000","EPOCH":"2022-07-25T17:52:48.054432","OBJECT_ID":"2022-005D","MEAN_MOTION":"15.08853940","REV_AT_EPOCH":"2902","GP_ID":"208864543","NORAD_CAT_ID":"51107","REF_FRAME":"TEME","ECCENTRICITY":"0.00017430","RCS_SIZE":"LARGE","PERIAPSIS":"538.497","INCLINATION":"53.2184","SITE":"AFETR","BSTAR":"-0.00022906000000","LAUNCH_DATE":"2022-01-19","CENTER_NAME":"EARTH","PERIOD":"95.437","COUNTRY_CODE":"US"},{"MEAN_MOTION_DDOT":"0.0000000000000","TLE_LINE1":"1 51108U 22005E   22206.82960224  .00000539  00000-0  51975-4 0  9997","TIME_SYSTEM":"UTC","ARG_OF_PERICENTER":"47.2087","OBJECT_NAME":"STARLINK-3362","MEAN_ANOMALY":"312.9052","TLE_LINE2":"2 51108  53.2190 107.6842 0001757  47.2087 312.9052 15.08840193 30276","OBJECT_TYPE":"PAYLOAD","MEAN_MOTION_DOT":"0.00000539","RA_OF_ASC_NODE":"107.6842","MEAN_ELEMENT_THEORY":"SGP4","ELEMENT_SET_NO":"999","APOAPSIS":"540.960","CLASSIFICATION_TYPE":"U","FILE":"3521591","SEMIMAJOR_AXIS":"6917.880","EPHEMERIS_TYPE":"0","DECAY_DATE":null,"PERIOD":"95.438","COUNTRY_CODE":"US","SITE":"AFETR","BSTAR":"0.00005197500000","CENTER_NAME":"EARTH","LAUNCH_DATE":"2022-01-19","ECCENTRICITY":"0.00017570","RCS_SIZE":"LARGE","NORAD_CAT_ID":"51108","REF_FRAME":"TEME","PERIAPSIS":"538.529","INCLINATION":"53.2190","OBJECT_ID":"2022-005E","REV_AT_EPOCH":"3027","MEAN_MOTION":"15.08840193","EPOCH":"2022-07-25T19:54:37.633536","GP_ID":"208837468"},{"INCLINATION":"53.2166","PERIAPSIS":"538.548","RCS_SIZE":"LARGE","ECCENTRICITY":"0.00017470","NORAD_CAT_ID":"51109","REF_FRAME":"TEME","GP_ID":"208863042","OBJECT_ID":"2022-005F","MEAN_MOTION":"15.08836251","REV_AT_EPOCH":"2892","EPOCH":"2022-07-25T17:17:03.532128","COUNTRY_CODE":"US","PERIOD":"95.438","CENTER_NAME":"EARTH","LAUNCH_DATE":"2022-01-19","SITE":"AFETR","BSTAR":"-0.00004226900000","OBJECT_TYPE":"PAYLOAD","TLE_LINE2":"2 51109  53.2166 108.1545 0001747  58.8898 301.2266 15.08836251 28920","MEAN_MOTION_DOT":"-0.00000961","MEAN_ELEMENT_THEORY":"SGP4","RA_OF_ASC_NODE":"108.1545","MEAN_ANOMALY":"301.2266","SEMIMAJOR_AXIS":"6917.892","EPHEMERIS_TYPE":"0","DECAY_DATE":null,"CLASSIFICATION_TYPE":"U","APOAPSIS":"540.965","ELEMENT_SET_NO":"999","FILE":"3521711","MEAN_MOTION_DDOT":"0.0000000000000","TIME_SYSTEM":"UTC","ARG_OF_PERICENTER":"58.8898","OBJECT_NAME":"STARLINK-3358","TLE_LINE1":"1 51109U 22005F   22206.72017977 -.00000961  00000-0 -42269-4 0  9992"},{"PERIOD":"95.438","COUNTRY_CODE":"US","SITE":"AFETR","BSTAR":"-0.00011189000000","CENTER_NAME":"EARTH","LAUNCH_DATE":"2022-01-19","ECCENTRICITY":"0.00018210","RCS_SIZE":"LARGE","REF_FRAME":"TEME","NORAD_CAT_ID":"51110","PERIAPSIS":"538.506","INCLINATION":"53.2183","MEAN_MOTION":"15.08833181","REV_AT_EPOCH":"2917","OBJECT_ID":"2022-005G","EPOCH":"2022-07-25T19:44:04.017408","GP_ID":"208863292","MEAN_MOTION_DDOT":"0.0000000000000","TLE_LINE1":"1 51110U 22005G   22206.82226872 -.00002068  00000-0 -11189-3 0  9997","TIME_SYSTEM":"UTC","ARG_OF_PERICENTER":"58.6800","OBJECT_NAME":"STARLINK-3344","MEAN_ANOMALY":"301.4371","OBJECT_TYPE":"PAYLOAD","TLE_LINE2":"2 51110  53.2183 107.7141 0001821  58.6800 301.4371 15.08833181 29178","RA_OF_ASC_NODE":"107.7141","MEAN_ELEMENT_THEORY":"SGP4","MEAN_MOTION_DOT":"-0.00002068","APOAPSIS":"541.026","CLASSIFICATION_TYPE":"U","ELEMENT_SET_NO":"999","FILE":"3521711","DECAY_DATE":null,"EPHEMERIS_TYPE":"0","SEMIMAJOR_AXIS":"6917.901"},{"PERIOD":"95.438","COUNTRY_CODE":"US","SITE":"AFETR","BSTAR":"-0.00007317000000","LAUNCH_DATE":"2022-01-19","CENTER_NAME":"EARTH","REF_FRAME":"TEME","NORAD_CAT_ID":"51111","ECCENTRICITY":"0.00016650","RCS_SIZE":"LARGE","INCLINATION":"53.2176","PERIAPSIS":"538.608","EPOCH":"2022-07-25T04:48:28.020384","MEAN_MOTION":"15.08835130","REV_AT_EPOCH":"2907","OBJECT_ID":"2022-005H","GP_ID":"208833445","MEAN_MOTION_DDOT":"0.0000000000000","TLE_LINE1":"1 51111U 22005H   22206.20032431 -.00001452  00000-0 -73170-4 0  9991","ARG_OF_PERICENTER":"67.5445","OBJECT_NAME":"STARLINK-3173","TIME_SYSTEM":"UTC","MEAN_ANOMALY":"292.5724","RA_OF_ASC_NODE":"110.4890","MEAN_ELEMENT_THEORY":"SGP4","MEAN_MOTION_DOT":"-0.00001452","TLE_LINE2":"2 51111  53.2176 110.4890 0001665  67.5445 292.5724 15.08835130 29070","OBJECT_TYPE":"PAYLOAD","FILE":"3521435","ELEMENT_SET_NO":"999","APOAPSIS":"540.912","CLASSIFICATION_TYPE":"U","DECAY_DATE":null,"SEMIMAJOR_AXIS":"6917.895","EPHEMERIS_TYPE":"0"},{"BSTAR":"0.00004229100000","SITE":"AFETR","LAUNCH_DATE":"2022-01-19","CENTER_NAME":"EARTH","PERIOD":"95.438","COUNTRY_CODE":"US","EPOCH":"2022-07-25T18:03:22.163040","MEAN_MOTION":"15.08827710","REV_AT_EPOCH":"2916","OBJECT_ID":"2022-005J","GP_ID":"208864794","REF_FRAME":"TEME","NORAD_CAT_ID":"51112","ECCENTRICITY":"0.00018750","RCS_SIZE":"LARGE","PERIAPSIS":"538.486","INCLINATION":"53.2189","TLE_LINE1":"1 51112U 22005J   22206.75233985  .00000385  00000-0  42291-4 0  9991","ARG_OF_PERICENTER":"48.8135","OBJECT_NAME":"STARLINK-3374","TIME_SYSTEM":"UTC","MEAN_MOTION_DDOT":"0.0000000000000","FILE":"3521711","APOAPSIS":"541.080","ELEMENT_SET_NO":"999","CLASSIFICATION_TYPE":"U","DECAY_DATE":null,"EPHEMERIS_TYPE":"0","SEMIMAJOR_AXIS":"6917.918","MEAN_ANOMALY":"311.3019","RA_OF_ASC_NODE":"108.0152","MEAN_ELEMENT_THEORY":"SGP4","MEAN_MOTION_DOT":"0.00000385","OBJECT_TYPE":"PAYLOAD","TLE_LINE2":"2 51112  53.2189 108.0152 0001875  48.8135 311.3019 15.08827710 29162"},{"RA_OF_ASC_NODE":"108.0585","MEAN_ELEMENT_THEORY":"SGP4","MEAN_MOTION_DOT":"0.00000033","OBJECT_TYPE":"PAYLOAD","TLE_LINE2":"2 51113  53.2170 108.0585 0001686  59.9508 300.1651 15.08834730 29157","MEAN_ANOMALY":"300.1651","DECAY_DATE":null,"EPHEMERIS_TYPE":"0","SEMIMAJOR_AXIS":"6917.896","FILE":"3521711","ELEMENT_SET_NO":"999","APOAPSIS":"540.928","CLASSIFICATION_TYPE":"U","MEAN_MOTION_DDOT":"0.0000000000000","ARG_OF_PERICENTER":"59.9508","OBJECT_NAME":"STARLINK-3372","TIME_SYSTEM":"UTC","TLE_LINE1":"1 51113U 22005K   22206.74128387  .00000033  00000-0  20175-4 0  9997","PERIAPSIS":"538.595","INCLINATION":"53.2170","REF_FRAME":"TEME","NORAD_CAT_ID":"51113","RCS_SIZE":"LARGE","ECCENTRICITY":"0.00016860","GP_ID":"208863542","EPOCH":"2022-07-25T17:47:26.926368","MEAN_MOTION":"15.08834730","REV_AT_EPOCH":"2915","OBJECT_ID":"2022-005K","COUNTRY_CODE":"US","PERIOD":"95.438","LAUNCH_DATE":"2022-01-19","CENTER_NAME":"EARTH","BSTAR":"0.00002017500000","SITE":"AFETR"}];
